SatCatId,ObjectName,LaunchYear,OrbitalPeriod,LaunchMass,StatusCode,Inclination,Status,UcsData,OrbitClassEstimated,LaunchSiteCountry,Owner,UseType,Purpose,LaunchVehicleClass,TLE1,TLE2,MeanMotion,Eccentricity,OrbitClass
62243,QIANFAN-42,2024,101.1,-1.0,P,89.0,Active,0,LEO,PRC,China,Unknown,Unknown,Unknown,1 62243U 24232G   25280.59904095  .00000675  00000+0  28557-3 0  9995,2 62243  89.0007  44.8968 0013038 304.7667  55.2297 14.24381027 91956,14.24381027,0.0013038,LEO
62244,QIANFAN-43,2024,106.59,-1.0,+,89.0,Active,0,LEO,PRC,China,Unknown,Unknown,Unknown,1 62244U 24232H   25280.61839162  .00000124  00000+0  17380-3 0  9992,2 62244  89.0014  47.9181 0016095  33.9932 326.2247 13.50976518 58938,13.50976518,0.0016095,LEO
62245,QIANFAN-44,2024,106.59,-1.0,+,89.0,Active,0,LEO,PRC,China,Unknown,Unknown,Unknown,1 62245U 24232J   25280.60598843  .00000128  00000+0  17989-3 0  9999,2 62245  89.0012  47.7311 0014243  31.9627 328.2385 13.50977777 90403,13.50977777,0.0014243,LEO
62246,QIANFAN-45,2024,106.59,-1.0,+,89.0,Active,0,LEO,PRC,China,Unknown,Unknown,Unknown,1 62246U 24232K   25280.64718076  .00000137  00000+0  19379-3 0  9991,2 62246  89.0016  47.8711 0014868  31.2233 328.9798 13.50974486 90333,13.50974486,0.0014868,LEO
62247,QIANFAN-46,2024,106.59,-1.0,+,89.0,Active,0,LEO,PRC,China,Unknown,Unknown,Unknown,1 62247U 24232L   25280.67184490  .00000112  00000+0  15457-3 0  9998,2 62247  89.0011  47.9404 0015109  36.3769 323.8406 13.50975064 90296,13.50975064,0.0015109,LEO
62248,QIANFAN-47,2024,106.59,-1.0,+,89.0,Active,0,LEO,PRC,China,Unknown,Unknown,Unknown,1 62248U 24232M   25280.67598591  .00000124  00000+0  17351-3 0  9998,2 62248  89.0007  47.8755 0015502  35.3576 324.8600 13.50976799 90329,13.50976799,0.0015502,LEO
62249,QIANFAN-48,2024,106.59,-1.0,+,89.0,Active,0,LEO,PRC,China,Unknown,Unknown,Unknown,1 62249U 24232N   25280.63899566  .00000132  00000+0  18544-3 0  9995,2 62249  89.0011  47.8786 0017817  37.1721 323.0660 13.50972645 90325,13.50972645,0.0017817,LEO
62250,QIANFAN-49,2024,106.59,-1.0,+,89.0,Active,0,LEO,PRC,China,Unknown,Unknown,Unknown,1 62250U 24232P   25280.62660660  .00000132  00000+0  18649-3 0  9993,2 62250  89.0011  47.8929 0014750  33.0944 327.1127 13.50976788 58915,13.50976788,0.001475,LEO
62251,QIANFAN-50,2024,106.59,-1.0,+,89.0,Active,0,LEO,PRC,China,Unknown,Unknown,Unknown,1 62251U 24232Q   25280.65130898  .00000139  00000+0  19689-3 0  9994,2 62251  89.0016  47.8949 0016441  33.6469 326.5722 13.50977375 58940,13.50977375,0.0016441,LEO
62252,QIANFAN-51,2024,106.59,-1.0,+,89.0,Active,0,LEO,PRC,China,Unknown,Unknown,Unknown,1 62252U 24232R   25280.63483407  .00000115  00000+0  15978-3 0  9991,2 62252  89.0010  47.8945 0014063  38.2756 321.9391 13.50974192 58933,13.50974192,0.0014063,LEO
62253,QIANFAN-52,2024,106.59,-1.0,+,89.0,Active,0,LEO,PRC,China,Unknown,Unknown,Unknown,1 62253U 24232S   25280.66360779  .00000123  00000+0  17211-3 0  9992,2 62253  89.0006  47.7677 0015827  29.9118 330.2934 13.50976775 59024,13.50976775,0.0015827,LEO
62254,QIANFAN-53,2024,106.59,-1.0,+,89.0,Active,0,LEO,PRC,China,Unknown,Unknown,Unknown,1 62254U 24232T   25280.64309679  .00000124  00000+0  17387-3 0  9998,2 62254  89.0014  47.8693 0014747  31.5286 328.6746 13.50972498 58982,13.50972498,0.0014747,LEO
62255,QIANFAN-54,2024,106.59,-1.0,+,89.0,Active,0,LEO,PRC,China,Unknown,Unknown,Unknown,1 62255U 24232U   25280.61012985  .00000134  00000+0  18908-3 0  9998,2 62255  89.0005  47.5569 0003734  82.7075 277.4501 13.50974624 90484,13.50974624,0.0003734,LEO
62256,PROBA-3 CSC,2024,1179.6,-1.0,+,59.52,Active,0,MEO,India,ESA,Unknown,Unknown,Unknown,1 62256U 24233A   25256.47828234 -.00000257  00000+0  31043-3 0  9991,2 62256  59.5164 120.9950 8049520 197.4283  94.8549  1.22075476  3445,1.22075476,0.804952,MEO
62259,SXM-9,2024,1436.18,-1.0,+,0.02,Active,0,GSO,USA,USA,Unknown,Unknown,Unknown,1 62259U 24234A   25278.62118902 -.00000204  00000+0  00000+0 0  9997,2 62259   0.0216 287.8852 0003944  29.0170 196.1355  1.00272818  3028,1.00272818,0.0003944,GEO
62261,SENTINEL-1C,2024,98.68,-1.0,+,98.18,Active,0,LEO,French Guiana,ESA,Unknown,Unknown,Unknown,1 62261U 24235A   25280.57832284  .00000290  00000+0  71206-4 0  9999,2 62261  98.1824 286.5210 0001340  89.5679 270.5674 14.59196797 44576,14.59196797,0.000134,LEO
62262,STARLINK-32632,2024,94.11,-1.0,+,53.16,Active,0,LEO,USA,USA,Unknown,Unknown,Unknown,1 62262U 24231V   25280.50489156  .00027070  00000+0  92226-3 0  9994,2 62262  53.1581 211.2575 0001083  70.1950 289.9167 15.30217566 48314,15.30217566,0.0001083,LEO
62267,STARLINK-11496 [DTC],2024,91.67,-1.0,+,43.0,Active,0,LEO,USA,USA,Unknown,Unknown,Unknown,1 62267U 24237A   25280.23278734  .00177311  00000+0  13517-2 0  9992,2 62267  42.9993 261.9439 0001090 250.1976 109.8774 15.70917365 48917,15.70917365,0.000109,LEO
62268,STARLINK-11501 [DTC],2024,91.66,-1.0,+,43.0,Active,0,LEO,USA,USA,Unknown,Unknown,Unknown,1 62268U 24237B   25280.32808107  .00325990  00000+0  24263-2 0  9994,2 62268  43.0004 260.9201 0001892 272.8285  87.2366 15.71029818 48883,15.71029818,0.0001892,LEO
62269,STARLINK-11491 [DTC],2024,91.67,-1.0,+,43.0,Active,0,LEO,USA,USA,Unknown,Unknown,Unknown,1 62269U 24237C   25280.32279315  .00427265  00000+0  31505-2 0  9993,2 62269  42.9999 260.8775 0001638 306.5388  53.5328 15.70950340 48939,15.7095034,0.0001638,LEO
62270,STARLINK-11479 [DTC],2024,91.67,-1.0,+,43.0,Active,0,LEO,USA,USA,Unknown,Unknown,Unknown,1 62270U 24237D   25280.33870929  .00283973  00000+0  21260-2 0  9997,2 62270  43.0005 261.0048 0002139 290.7798  69.2840 15.71016761 48937,15.71016761,0.0002139,LEO
62271,STARLINK-11489 [DTC],2024,91.66,-1.0,+,43.0,Active,0,LEO,USA,USA,Unknown,Unknown,Unknown,1 62271U 24237E   25280.31229626  .00214650  00000+0  16269-2 0  9997,2 62271  42.9992 261.6876 0002017 276.1708  83.8930 15.70935909 48924,15.70935909,0.0002017,LEO
62272,STARLINK-11494 [DTC],2024,91.67,-1.0,+,43.0,Active,0,LEO,USA,USA,Unknown,Unknown,Unknown,1 62272U 24237F   25280.10031692  .00380229  00000+0  28334-2 0  9991,2 62272  42.9993 262.6656 0002913 292.3123  67.7435 15.70838065 48846,15.70838065,0.0002913,LEO
62273,STARLINK-11333 [DTC],2024,91.67,-1.0,+,43.0,Active,0,LEO,USA,USA,Unknown,Unknown,Unknown,1 62273U 24237G   25280.36525837  .00195729  00000+0  14889-2 0  9998,2 62273  43.0001 261.2176 0002294 245.5949 114.4679 15.70907800 48933,15.709078,0.0002294,LEO
62274,STARLINK-11504 [DTC],2024,91.67,-1.0,+,43.0,Active,0,LEO,USA,USA,Unknown,Unknown,Unknown,1 62274U 24237H   25280.41291913  .00260236  00000+0  19616-2 0  9999,2 62274  42.9988 260.7041 0000959 244.1880 115.8889 15.70926691 48898,15.70926691,9.59e-05,LEO
62275,STARLINK-11495 [DTC],2024,91.67,-1.0,+,43.0,Active,0,LEO,USA,USA,Unknown,Unknown,Unknown,1 62275U 24237J   25280.38119127  .00142816  00000+0  10950-2 0  9997,2 62275  42.9997 261.3449 0001407 270.2343  89.8363 15.70894242 48883,15.70894242,0.0001407,LEO
62276,STARLINK-11498 [DTC],2024,91.67,-1.0,+,43.0,Active,0,LEO,USA,USA,Unknown,Unknown,Unknown,1 62276U 24237K   25279.44325144  .00448410  00000+0  32901-2 0  9990,2 62276  42.9991 266.3258 0001881 288.5153  71.5510 15.71005351 48796,15.71005351,0.0001881,LEO
62277,STARLINK-11484 [DTC],2024,91.66,-1.0,+,43.0,Active,0,LEO,USA,USA,Unknown,Unknown,Unknown,1 62277U 24237L   25280.28044697  .00246906  00000+0  18666-2 0  9994,2 62277  43.0000 261.4276 0001284 270.6105  89.4616 15.70897176 48925,15.70897176,0.0001284,LEO
62278,STARLINK-11487 [DTC],2024,91.67,-1.0,+,43.0,Active,0,LEO,USA,USA,Unknown,Unknown,Unknown,1 62278U 24237M   25280.43414283  .00370126  00000+0  27402-2 0  9994,2 62278  42.9998 260.8745 0002432 276.0134  84.0457 15.71024157 48940,15.71024157,0.0002432,LEO
62279,STARLINK-11499 [DTC],2024,91.67,-1.0,+,43.0,Active,0,LEO,USA,USA,Unknown,Unknown,Unknown,1 62279U 24237N   25280.31851827  .00178450  00000+0  13605-2 0  9997,2 62279  43.0000 261.7337 0001647 274.2409  85.8270 15.70910064 48858,15.70910064,0.0001647,LEO
62280,STARLINK-33548,2024,94.27,-1.0,+,43.0,Active,0,LEO,USA,USA,Unknown,Unknown,Unknown,1 62280U 24237P   25280.46439297  .00039769  00000+0  14454-2 0  9990,2 62280  42.9957 350.8318 0002391 131.3545 228.7513 15.27613291 47883,15.27613291,0.0002391,LEO
62281,STARLINK-33544,2024,94.26,-1.0,+,43.0,Active,0,LEO,USA,USA,Unknown,Unknown,Unknown,1 62281U 24237Q   25280.51819195  .00048079  00000+0  17433-2 0  9990,2 62281  43.0018   1.6303 0001202 269.0793  90.9921 15.27616972 47761,15.27616972,0.0001202,LEO
62282,STARLINK-33560,2024,94.27,-1.0,+,43.0,Active,0,LEO,USA,USA,Unknown,Unknown,Unknown,1 62282U 24237R   25280.30404512  .00031031  00000+0  11319-2 0  9998,2 62282  43.0005   2.5966 0001246 213.7654 146.3119 15.27594901 47642,15.27594901,0.0001246,LEO
62283,STARLINK-33547,2024,94.27,-1.0,+,43.01,Active,0,LEO,USA,USA,Unknown,Unknown,Unknown,1 62283U 24237S   25280.59131384  .00025301  00000+0  92551-3 0  9995,2 62283  42.9982 350.0692 0000359 191.4810 168.6033 15.27589640 47907,15.2758964,3.59e-05,LEO
62284,STARLINK-33563,2024,94.26,-1.0,+,43.0,Active,0,LEO,USA,USA,Unknown,Unknown,Unknown,1 62284U 24237T   25280.50662478  .00026045  00000+0  95171-3 0  9997,2 62284  43.0014   1.5382 0001292 273.7964  86.2740 15.27611551 47762,15.27611551,0.0001292,LEO
62285,STARLINK-33550,2024,94.27,-1.0,+,43.0,Active,0,LEO,USA,USA,Unknown,Unknown,Unknown,1 62285U 24237U   25280.49634797  .00033696  00000+0  12275-2 0  9992,2 62285  43.0030   1.4607 0001669 262.1801  97.8861 15.27605415 47764,15.27605415,0.0001669,LEO
62286,STARLINK-33564,2024,94.26,-1.0,+,43.0,Active,0,LEO,USA,USA,Unknown,Unknown,Unknown,1 62286U 24237V   25280.57586480  .00040555  00000+0  14727-2 0  9993,2 62286  43.0013   1.2017 0000295 242.6621 117.4201 15.27634828 47774,15.27634828,2.95e-05,LEO
